{"type":"FeatureCollection","features":[{"type":"Feature","geometry":{"type":"Polygon","coordinates":[[[108.2030917,16.0064943],[108.20656,16.0086815],[108.2082176,16.0102132],[108.2087268,16.010884],[108.2081467,16.0119398],[108.2064806,16.0101016],[108.2050527,16.0092382],[108.2023024,16.0085709],[108.2018751,16.0078565],[108.2014303,16.0081631],[108.205897,16.0103594],[108.2062052,16.0102113],[108.2074159,16.0113795],[108.2121055,16.0177564],[108.2147655,16.0188407],[108.2146233,16.0182861],[108.2159622,16.0192969],[108.2171443,16.0196309],[108.2201389,16.0220418],[108.2204528,16.0229876],[108.2233678,16.0265616],[108.2256365,16.0283712],[108.2282271,16.0293373],[108.232788,16.0303109],[108.2333629,16.0310454],[108.2344684,16.034865],[108.2342466,16.0374498],[108.2335023,16.0398278],[108.2302498,16.0469795],[108.2288245,16.0463604],[108.2279517,16.0444846],[108.2279832,16.0436755],[108.2288083,16.042342],[108.2290735,16.0411053],[108.2288062,16.041003],[108.2278134,16.0409014],[108.2279128,16.0417448],[108.2275509,16.0423556],[108.2257263,16.0442961],[108.2251948,16.0458974],[108.2244278,16.0462458],[108.2241057,16.0484457],[108.2255278,16.0483431],[108.227096,16.0494932],[108.2268742,16.0510602],[108.2254242,16.0505127],[108.2251569,16.0513921],[108.2253112,16.050362],[108.2239419,16.0504249],[108.2238539,16.0535834],[108.2241538,16.0541006],[108.223835,16.0545228],[108.2238453,16.0558637],[108.2241324,16.0596656],[108.2245844,16.0602839],[108.2243297,16.064882],[108.2251207,16.0667898],[108.2253551,16.0711432],[108.2252532,16.0727418],[108.2250547,16.0726595],[108.2243229,16.0764278],[108.2247238,16.0766972],[108.2241674,16.0820341],[108.2239286,16.0820627],[108.2228972,16.0853212],[108.2219696,16.0863919],[108.2216195,16.0876747],[108.2199969,16.0901543],[108.2199091,16.0908954],[108.2178517,16.0928067],[108.2175491,16.0933988],[108.2179644,16.0936797],[108.2178393,16.0939108],[108.2174368,16.0938227],[108.2149991,16.0961727],[108.22286,16.106523],[108.2226811,16.1059791],[108.2240305,16.0970454],[108.2230371,16.0965509],[108.2241847,16.0959208],[108.2239023,16.0955649],[108.2244441,16.0919216],[108.2276701,16.0888184],[108.2277563,16.0838697],[108.2274689,16.0836278],[108.2283882,16.0828193],[108.2284546,16.0685625],[108.2294694,16.0659491],[108.2300502,16.0629612],[108.2298777,16.0610141],[108.2302228,16.0605822],[108.2303998,16.0589816],[108.230002,16.0587622],[108.2295692,16.057554],[108.230092,16.0538483],[108.2314894,16.0508647],[108.2337737,16.0485714],[108.2360523,16.0436084],[108.2379277,16.0331475],[108.2369737,16.0299799],[108.2370744,16.0288835],[108.2380846,16.0260323],[108.2387987,16.0253598],[108.2411071,16.0208688],[108.2460862,16.0190808],[108.2480002,16.0177049],[108.2490674,16.0165252],[108.2479897,16.0155317],[108.2475474,16.0164604],[108.2459046,16.0177434],[108.2456866,16.018242],[108.2403268,16.0189627],[108.2397069,16.0184633],[108.2395637,16.017763],[108.2403325,16.0170484],[108.2395474,16.0163324],[108.2388289,16.0168311],[108.2380903,16.0166243],[108.2352435,16.0140301],[108.2336825,16.011436],[108.2331753,16.0092838],[108.2331443,16.0059005],[108.2326063,16.0046164],[108.2364487,16.0022412],[108.2359629,16.0016877],[108.2340423,16.002865],[108.2341558,16.0033716],[108.2323195,16.0041644],[108.2300698,16.0016086],[108.2296041,16.0009826],[108.2297893,15.9995917],[108.2303129,15.9981295],[108.2310997,15.9972719],[108.2314013,15.9958067],[108.2309777,15.9917457],[108.2294083,15.9896475],[108.2253921,15.9882492],[108.2242235,15.9867141],[108.2235587,15.9862429],[108.2231035,15.9863163],[108.2231659,15.9858748],[108.2219581,15.9852126],[108.2224875,15.9838785],[108.2241052,15.9821337],[108.2235708,15.9824404],[108.2238639,15.9808236],[108.2237243,15.9796287],[108.2226039,15.9774171],[108.2182129,15.972917],[108.2177234,15.9721248],[108.2175215,15.9706604],[108.2182573,15.9684913],[108.2206347,15.9639071],[108.2241176,15.9621501],[108.2256146,15.9596334],[108.2255271,15.9573024],[108.2250509,15.9557881],[108.2225478,15.9505472],[108.2223661,15.9487599],[108.2231219,15.9476187],[108.2227559,15.9470291],[108.2220518,15.9476424],[108.2214483,15.9496867],[108.2241756,15.9580313],[108.2240518,15.9607004],[108.2228355,15.9618202],[108.2203517,15.9628068],[108.2192105,15.9640134],[108.2167123,15.9686825],[108.216259,15.9699065],[108.2162461,15.9713316],[108.2143664,15.9716801],[108.2120906,15.9726188],[108.2096659,15.9722629],[108.2086694,15.9718581],[108.2075872,15.9708047],[108.2053274,15.9704192],[108.2035705,15.9688745],[108.2039139,15.9666517],[108.202908,15.9646557],[108.20301,15.9640987],[108.2061495,15.9620821],[108.2049522,15.9587224],[108.202997,15.9563536],[108.202624,15.9554898],[108.202895,15.954681],[108.2047759,15.9528245],[108.2048164,15.9518371],[108.2038644,15.9495662],[108.2025483,15.9485955],[108.2005766,15.9483369],[108.1998912,15.9476908],[108.1992727,15.9477016],[108.1982816,15.9487214],[108.1985367,15.9510197],[108.1980002,15.9513258],[108.1964744,15.9513722],[108.1959299,15.9517281],[108.1956965,15.9523522],[108.196131,15.9530292],[108.1965173,15.9529647],[108.1969263,15.9537048],[108.1985276,15.9555745],[108.1997668,15.9559278],[108.2014619,15.9557086],[108.2040611,15.9585616],[108.2047373,15.9604239],[108.20463,15.962015],[108.2041472,15.9626494],[108.2027509,15.9631965],[108.2022428,15.9641193],[108.2022911,15.9651611],[108.2027096,15.9655995],[108.2031468,15.9671726],[108.2027364,15.9685032],[108.2029805,15.9694372],[108.2057941,15.971314],[108.2071973,15.9713302],[108.2080467,15.9718849],[108.2080778,15.9723796],[108.2101049,15.9732138],[108.2125479,15.9731242],[108.2151443,15.9720295],[108.2163267,15.9722087],[108.217828,15.9749247],[108.219776,15.9770414],[108.2209858,15.9793534],[108.2215877,15.9813636],[108.2212365,15.983071],[108.22032,15.9841349],[108.2204711,15.983258],[108.2171734,15.9831459],[108.2171663,15.9846382],[108.2181449,15.9846337],[108.2187216,15.984011],[108.2203479,15.9844102],[108.2201352,15.9849883],[108.2195722,15.9852946],[108.2197074,15.9874434],[108.2203023,15.9879685],[108.2220061,15.9883721],[108.2248655,15.9902005],[108.2253271,15.9909939],[108.2250634,15.9913518],[108.2250815,15.9927165],[108.2257575,15.9930119],[108.2263313,15.994099],[108.2269141,15.9939251],[108.2278905,15.9951662],[108.2289242,15.99792],[108.2283016,15.9997653],[108.2284996,16.0013308],[108.2296297,16.0032514],[108.2307693,16.0042242],[108.2319873,16.0067597],[108.2319389,16.0101883],[108.2325941,16.0133628],[108.2351575,16.0171229],[108.2373219,16.019072],[108.2379779,16.0211638],[108.2379259,16.0231844],[108.2324798,16.0271575],[108.2276816,16.0260955],[108.2239555,16.0239405],[108.2226166,16.0226182],[108.2217123,16.0204386],[108.2207869,16.0192135],[108.2198714,16.0191076],[108.2184041,16.0178451],[108.2167933,16.0171715],[108.2183548,16.0180476],[108.2180859,16.0179946],[108.2187581,16.0187096],[108.2184745,16.0186477],[108.2165612,16.0172954],[108.2156533,16.0160465],[108.2164457,16.0145561],[108.2164155,16.0139599],[108.215007,16.0109501],[108.2140854,16.0106717],[108.212839,16.0108218],[108.2119408,16.0104328],[108.208433,16.0084805],[108.2061702,16.0062363],[108.2052411,16.0060354],[108.2054526,16.0058103],[108.206072,16.0061371],[108.2055936,16.0054473],[108.2056062,16.0057692],[108.2045781,16.0052787],[108.2052705,16.00577],[108.2050111,16.0058765],[108.2043763,16.0054843],[108.2040036,16.0042548],[108.2032457,16.0042306],[108.2032633,16.0037538],[108.2030695,16.0034997],[108.2029058,16.0037151],[108.2021907,16.0024565],[108.2019087,16.0015247],[108.2021401,15.9997563],[108.2016592,15.998885],[108.2011444,16.0010843],[108.2017237,16.0006961],[108.202164,16.0027054],[108.2029603,16.0043761],[108.2009117,16.0020471],[108.1990776,16.0009743],[108.1956228,15.9997619],[108.1938578,15.9996457],[108.1913604,15.9988377],[108.1911267,16.0001376],[108.1933225,16.0006976],[108.1976281,16.0032268],[108.2005261,16.0053751],[108.1999118,16.0052125],[108.1999474,16.0054247],[108.2030917,16.0064943]],[[108.2023742,15.9546511],[108.2021606,15.9560104],[108.2013184,15.9553785],[108.1997936,15.9556996],[108.198773,15.9554417],[108.1969183,15.9528667],[108.1959473,15.9523367],[108.1960707,15.9519305],[108.1966393,15.9516701],[108.1981826,15.9515347],[108.1988018,15.9511696],[108.1986091,15.9489351],[108.1993467,15.9478894],[108.2002559,15.9488962],[108.2021357,15.9490523],[108.2030725,15.9494743],[108.2042463,15.9512792],[108.2042946,15.9527133],[108.2023742,15.9546511]],[[108.1973769,15.9537629],[108.1975996,15.9542193],[108.1971382,15.9537629],[108.1973769,15.9537629]],[[108.2056949,15.9616695],[108.205254,15.9620224],[108.2054052,15.9612466],[108.2056949,15.9616695]],[[108.2152125,16.0119571],[108.2135646,16.0114705],[108.2134048,16.0112437],[108.2144095,16.0111376],[108.2142573,16.0113791],[108.214988,16.0114669],[108.2152125,16.0119571]],[[108.2149482,16.0154964],[108.2144546,16.0155428],[108.2136339,16.0143775],[108.213194,16.0128925],[108.2152969,16.0131142],[108.2155436,16.013403],[108.2149482,16.0154964]],[[108.2084997,16.0113625],[108.2096858,16.0119139],[108.211461,16.013821],[108.2134174,16.0165365],[108.2135307,16.0172964],[108.2138181,16.0171358],[108.2143743,16.0179101],[108.214026,16.0182435],[108.2124418,16.0172905],[108.2106836,16.0155464],[108.2085109,16.0127435],[108.2082791,16.0120964],[108.2084997,16.0113625]],[[108.2268635,16.0486919],[108.2255152,16.0476753],[108.2263209,16.0462974],[108.2263947,16.0453488],[108.2272938,16.0448449],[108.2276441,16.0450336],[108.2282301,16.04683],[108.2274158,16.0485609],[108.2268635,16.0486919]]]},"properties":{}},{"type":"Feature","geometry":{"type":"MultiPolygon","coordinates":[[[[108.2218441,16.0758187],[108.2223841,16.0758869],[108.2223112,16.0763839],[108.2224678,16.0758323],[108.2218441,16.0758187]]],[[[108.2221722,16.076433],[108.2222388,16.0769428],[108.2220475,16.0768042],[108.221154,16.0768317],[108.2212779,16.0757655],[108.2217779,16.075815],[108.2212097,16.0756815],[108.2210608,16.0768996],[108.2222672,16.0770503],[108.2221722,16.076433]]]]},"properties":{}},{"type":"Feature","geometry":{"type":"LineString","coordinates":[[108.2359481,16.1024338],[108.2394981,16.1031844],[108.2400478,16.1037574],[108.238835,16.1046358],[108.2379733,16.1057855],[108.237596,16.1071974],[108.2361186,16.1048457],[108.2367867,16.1045735],[108.2368402,16.1057267],[108.2372392,16.1060123],[108.2382398,16.1051474],[108.238847,16.1040518],[108.2347491,16.102646],[108.2349881,16.1020835],[108.2359481,16.1024338]]},"properties":{}},{"type":"Feature","geometry":{"type":"Polygon","coordinates":[[[108.2103823,16.0641466],[108.2104407,16.0630448],[108.2097309,16.0628788],[108.2093549,16.0632019],[108.2093048,16.0640242],[108.2103823,16.0641466]]]},"properties":{}},{"type":"Feature","geometry":{"type":"Polygon","coordinates":[[[108.2106882,16.0643485],[108.2111879,16.0643911],[108.2115942,16.0626567],[108.2109323,16.0626077],[108.2106882,16.0643485]]]},"properties":{}},{"type":"Feature","geometry":{"type":"Polygon","coordinates":[[[108.2191502,16.0468508],[108.2208037,16.0471081],[108.2208761,16.046583],[108.2191755,16.0463918],[108.2191502,16.0468508]]]},"properties":{}},{"type":"Feature","geometry":{"type":"Polygon","coordinates":[[[108.1918646,16.0569186],[108.1916736,16.0569485],[108.1918207,16.0570096],[108.1918646,16.0569186]]]},"properties":{}},{"type":"Feature","geometry":{"type":"Polygon","coordinates":[[[108.1948201,16.0616812],[108.1943682,16.0611269],[108.1933838,16.0623929],[108.1934156,16.0640508],[108.1945173,16.0642563],[108.1949361,16.0639471],[108.1946991,16.0638533],[108.1948201,16.0616812]]]},"properties":{}},{"type":"Feature","geometry":{"type":"Polygon","coordinates":[[[108.1918675,16.0605526],[108.1910627,16.0608781],[108.1918876,16.0612943],[108.1919586,16.0622939],[108.192963,16.0623494],[108.1927974,16.0615543],[108.1918675,16.0605526]]]},"properties":{}},{"type":"Feature","geometry":{"type":"Polygon","coordinates":[[[108.1904489,16.0590203],[108.1901413,16.0601271],[108.1902954,16.0606451],[108.1908678,16.0606277],[108.1909312,16.060872],[108.1915004,16.0600713],[108.1904489,16.0590203]]]},"properties":{}},{"type":"Feature","geometry":{"type":"LineString","coordinates":[[108.2206923,16.1036543],[108.2149991,16.0961727]]},"properties":{}},{"type":"Feature","geometry":{"type":"LineString","coordinates":[[108.2149991,16.0961727],[108.2126815,16.0974633],[108.2100685,16.0982392],[108.2071278,16.0984265],[108.2041422,16.097898],[108.2071317,16.098261],[108.2100283,16.0980412],[108.2125818,16.0972604],[108.2147603,16.0960807],[108.2131231,16.0915669],[108.2106184,16.089622],[108.2074232,16.0889839],[108.2060396,16.0913602],[108.2047276,16.092864],[108.2030279,16.0938684],[108.2010767,16.0944295],[108.2038013,16.0932455],[108.2052976,16.0920062],[108.2063845,16.0904322],[108.2072759,16.0881022],[108.2075553,16.0863245],[108.2071477,16.083312],[108.2052142,16.0789681]]},"properties":{}},{"type":"Feature","geometry":{"type":"Polygon","coordinates":[[[108.2164777,16.0288314],[108.2169475,16.0285739],[108.2170573,16.0277761],[108.2177064,16.0280287],[108.2182473,16.027189],[108.2181268,16.0256003],[108.2176211,16.025667],[108.2174101,16.0252572],[108.2168754,16.0253613],[108.2166536,16.0262374],[108.215757,16.02714],[108.215824,16.0281385],[108.2164777,16.0288314]]]},"properties":{}},{"type":"Feature","geometry":{"type":"Polygon","coordinates":[[[108.2149403,16.0310123],[108.2158762,16.0301454],[108.2164777,16.0288314],[108.2163323,16.028743],[108.2158732,16.0299182],[108.2149403,16.0310123]]]},"properties":{}},{"type":"Feature","geometry":{"type":"Polygon","coordinates":[[[108.2178119,16.0256545],[108.2177233,16.0248067],[108.2181939,16.0241186],[108.2205451,16.0230649],[108.2196886,16.0238383],[108.2183589,16.0243004],[108.2179988,16.024834],[108.2181268,16.0256003],[108.2178119,16.0256545]]]},"properties":{}},{"type":"Feature","geometry":{"type":"Polygon","coordinates":[[[108.2171356,16.0470592],[108.2179161,16.0469948],[108.2175433,16.0466855],[108.2171356,16.0470592]]]},"properties":{}},{"type":"Feature","geometry":{"type":"Polygon","coordinates":[[[108.2062897,16.0473101],[108.2062777,16.0470024],[108.2058513,16.0472558],[108.2062897,16.0473101]]]},"properties":{}},{"type":"Feature","geometry":{"type":"Polygon","coordinates":[[[108.2040056,16.0647123],[108.2050532,16.0646972],[108.2056447,16.0644219],[108.2059498,16.0638031],[108.2063133,16.0638949],[108.20696,16.0633767],[108.2070995,16.0604925],[108.2068796,16.0598919],[108.2059408,16.0600079],[108.2047284,16.0630597],[108.2042242,16.0636396],[108.2043637,16.0642169],[108.2038111,16.0644154],[108.2040056,16.0647123]]]},"properties":{}},{"type":"Feature","geometry":{"type":"LineString","coordinates":[[108.2213472,16.1255535],[108.2213088,16.1249987],[108.2205994,16.1241474],[108.2192428,16.1235493],[108.2188185,16.1234563],[108.2165287,16.1249758],[108.2152873,16.1250177],[108.2144691,16.1244856],[108.2133627,16.1227981],[108.2090274,16.1224989],[108.2129702,16.1225301],[108.2129835,16.1223199],[108.2104873,16.1221334],[108.2123218,16.1199367],[108.2138924,16.1210704],[108.2144868,16.1203465],[108.2129684,16.1191277],[108.2131394,16.1189216],[108.2146673,16.1201258],[108.2151943,16.1194812],[108.2138652,16.1184123],[108.2140383,16.1182],[108.2153602,16.1192782],[108.2158435,16.1186871],[108.2153836,16.1183049],[108.2167306,16.1167025],[108.2169948,16.1169246],[108.2175299,16.115962],[108.2184548,16.1157404],[108.2187582,16.1176466],[108.2197246,16.1178707],[108.2201125,16.1182024],[108.2186735,16.1178439],[108.2184872,16.1185435],[108.2189688,16.1191836],[108.2216112,16.1209091],[108.2224212,16.1200781],[108.2225504,16.1193811],[108.2212465,16.1190384],[108.2225804,16.1192405],[108.222733,16.1184719],[108.2259405,16.1163882],[108.2283572,16.1159392],[108.2286944,16.1167301],[108.2286241,16.1164892],[108.229567,16.1161649],[108.2291488,16.1154856],[108.2307593,16.1145499],[108.2312073,16.1147837],[108.2318686,16.1145978],[108.2342173,16.1130483],[108.2341632,16.1126105],[108.2347422,16.1122805],[108.2370494,16.1119542],[108.2386529,16.1123919],[108.2390211,16.1121236],[108.2400815,16.1125336],[108.2417247,16.1123822],[108.2415221,16.1107973],[108.2407089,16.1105588],[108.2408129,16.110215],[108.2395757,16.1098625],[108.2408435,16.1101137],[108.2417275,16.1071902],[108.2406608,16.1068843],[108.2407409,16.106619],[108.2418092,16.10692],[108.2425213,16.1043222],[108.2402241,16.09983],[108.2398409,16.0997641],[108.2393896,16.0988628],[108.2381439,16.0960114],[108.2387474,16.0960758],[108.237476,16.0932255],[108.2368779,16.0926611],[108.2346597,16.0946558],[108.2345578,16.095063],[108.2360116,16.0978411],[108.2347462,16.1014736],[108.2348565,16.1020724],[108.2339561,16.1038424],[108.2264499,16.1001395],[108.2265729,16.1010555],[108.2285235,16.1012169],[108.2287102,16.1015012],[108.2275621,16.1091433],[108.2272685,16.1093975],[108.2252836,16.1090575],[108.22286,16.106523]]},"properties":{}},{"type":"Feature","geometry":{"type":"LineString","coordinates":[[108.2052142,16.0789681],[108.2036241,16.0766356],[108.2014068,16.074192],[108.1946447,16.0731689],[108.1919899,16.0732907],[108.1872645,16.0740515],[108.1795891,16.0758997],[108.1787527,16.0765067],[108.1782671,16.0764793],[108.1792614,16.0766718],[108.1779249,16.0766679],[108.1681649,16.0808416]]},"properties":{}},{"type":"Feature","geometry":{"type":"Polygon","coordinates":[[[108.2162667,16.0908708],[108.2168643,16.0908786],[108.2169049,16.0904099],[108.2164008,16.0903474],[108.2162667,16.0908708]]]},"properties":{}},{"type":"Feature","geometry":{"type":"Polygon","coordinates":[[[108.2258038,16.024662],[108.2251599,16.024332],[108.2258588,16.0240084],[108.2261452,16.0243019],[108.2258038,16.024662]]]},"properties":{}},{"type":"Feature","geometry":{"type":"Polygon","coordinates":[[[108.2268172,16.0235678],[108.2261628,16.0237625],[108.2267435,16.0232185],[108.2286988,16.0230071],[108.2303537,16.0220159],[108.2313435,16.0226359],[108.2334463,16.0253943],[108.2332331,16.0255555],[108.2307011,16.022293],[108.2277024,16.0240048],[108.2268172,16.0235678]]]},"properties":{}},{"type":"Feature","geometry":{"type":"Polygon","coordinates":[[[108.2192963,16.0690528],[108.2193299,16.0685592],[108.2201278,16.0689239],[108.2200795,16.0692138],[108.2192963,16.0690528]]]},"properties":{}},{"type":"Feature","geometry":{"type":"Polygon","coordinates":[[[108.2257405,16.0426225],[108.2258969,16.0426421],[108.2258409,16.0425782],[108.2257405,16.0426225]]]},"properties":{}},{"type":"Feature","geometry":{"type":"Polygon","coordinates":[[[108.2257066,16.0429142],[108.2257901,16.0430034],[108.2257393,16.0430287],[108.2257066,16.0429142]]]},"properties":{}},{"type":"Feature","geometry":{"type":"LineString","coordinates":[[108.2069623,16.0972376],[108.2063171,16.0948691],[108.2068357,16.0940587],[108.2071069,16.0942412],[108.2068904,16.0949837],[108.2071855,16.0961768],[108.2079034,16.0965505],[108.2098204,16.0967574],[108.2094464,16.0971447],[108.2075942,16.0973076],[108.2073374,16.0977383],[108.2069623,16.0972376]]},"properties":{}},{"type":"Feature","geometry":{"type":"LineString","coordinates":[[108.22286,16.106523],[108.2206923,16.1036543]]},"properties":{}},{"type":"Feature","geometry":{"type":"Polygon","coordinates":[[[108.231394,16.0572964],[108.2312998,16.0573891],[108.2313991,16.0573766],[108.231394,16.0572964]]]},"properties":{}},{"type":"Feature","geometry":{"type":"Polygon","coordinates":[[[108.2240343,16.0386374],[108.2241802,16.0387668],[108.2242737,16.0387033],[108.2240343,16.0386374]]]},"properties":{}},{"type":"Feature","geometry":{"type":"Polygon","coordinates":[[[108.224635,16.0384718],[108.2249353,16.0383421],[108.2247663,16.0381348],[108.224675,16.0381244],[108.224635,16.0384718]]]},"properties":{}},{"type":"Feature","geometry":{"type":"Polygon","coordinates":[[[108.2249523,16.0387198],[108.2246885,16.0385333],[108.2249507,16.0383568],[108.2249523,16.0387198]]]},"properties":{}},{"type":"Feature","geometry":{"type":"Polygon","coordinates":[[[108.2254883,16.0384202],[108.2256521,16.0382352],[108.2256365,16.0384356],[108.2254883,16.0384202]]]},"properties":{}},{"type":"Feature","geometry":{"type":"Polygon","coordinates":[[[108.2239779,16.0389702],[108.2239606,16.0387914],[108.22414,16.0388617],[108.2239779,16.0389702]]]},"properties":{}},{"type":"Feature","geometry":{"type":"Polygon","coordinates":[[[108.2283625,16.0387996],[108.2285251,16.0386119],[108.2283827,16.0385987],[108.2283625,16.0387996]]]},"properties":{}},{"type":"Feature","geometry":{"type":"Polygon","coordinates":[[[108.228599,16.0387782],[108.2285687,16.0386228],[108.2286107,16.0386257],[108.228599,16.0387782]]]},"properties":{}},{"type":"Feature","geometry":{"type":"Polygon","coordinates":[[[108.2287289,16.0387882],[108.2286945,16.0386389],[108.2287414,16.0386427],[108.2287289,16.0387882]]]},"properties":{}},{"type":"Feature","geometry":{"type":"Polygon","coordinates":[[[108.228909,16.0388609],[108.2287846,16.0386526],[108.2289287,16.038666],[108.228909,16.0388609]]]},"properties":{}},{"type":"Feature","geometry":{"type":"Polygon","coordinates":[[[108.213136,16.0730464],[108.2132867,16.0731818],[108.2133147,16.0730174],[108.213136,16.0730464]]]},"properties":{}},{"type":"Feature","geometry":{"type":"Polygon","coordinates":[[[108.2163624,16.0463082],[108.2164046,16.0458334],[108.2171004,16.045888],[108.2170699,16.04639],[108.2163624,16.0463082]]]},"properties":{}},{"type":"Feature","geometry":{"type":"Polygon","coordinates":[[[108.1988166,16.063984],[108.1991213,16.0631686],[108.2020331,16.0636505],[108.2016612,16.0643167],[108.2011948,16.0644834],[108.200451,16.0644686],[108.2002429,16.0641945],[108.199765,16.0644241],[108.1988166,16.063984]]]},"properties":{}},{"type":"Feature","geometry":{"type":"Polygon","coordinates":[[[108.2052323,16.0445507],[108.2049916,16.0432389],[108.2052251,16.0431111],[108.2056023,16.0444265],[108.2052323,16.0445507]]]},"properties":{}},{"type":"Feature","geometry":{"type":"Polygon","coordinates":[[[108.2043633,16.0268309],[108.2052137,16.0268593],[108.2054189,16.0252948],[108.2044955,16.0251583],[108.2043633,16.0268309]]]},"properties":{}},{"type":"Feature","geometry":{"type":"Polygon","coordinates":[[[108.2055768,16.0265123],[108.2062792,16.0267607],[108.2070467,16.0260609],[108.2056024,16.0255755],[108.2055768,16.0265123]]]},"properties":{}},{"type":"Feature","geometry":{"type":"Polygon","coordinates":[[[108.2032122,16.0257427],[108.2041799,16.0258563],[108.2043144,16.0240586],[108.2034974,16.0239666],[108.2032122,16.0257427]]]},"properties":{}},{"type":"Feature","geometry":{"type":"Polygon","coordinates":[[[108.2044769,16.0250495],[108.2045097,16.0248084],[108.2054965,16.0248844],[108.2054308,16.0252173],[108.2044769,16.0250495]]]},"properties":{}},{"type":"Feature","geometry":{"type":"Polygon","coordinates":[[[108.2046292,16.024751],[108.2054697,16.0247955],[108.2054891,16.0242488],[108.2046978,16.0241656],[108.2046292,16.024751]]]},"properties":{}},{"type":"Feature","geometry":{"type":"Polygon","coordinates":[[[108.2055831,16.0254168],[108.205913,16.0243363],[108.2075851,16.0255373],[108.2071432,16.0259118],[108.2055831,16.0254168]]]},"properties":{}},{"type":"Feature","geometry":{"type":"Polygon","coordinates":[[[108.2071706,16.0262792],[108.2075679,16.0265129],[108.2077159,16.0262023],[108.2072703,16.0259555],[108.2071706,16.0262792]]]},"properties":{}},{"type":"Feature","geometry":{"type":"Polygon","coordinates":[[[108.2063792,16.0269441],[108.2070966,16.0261733],[108.2074727,16.0266218],[108.2071601,16.0273244],[108.2063792,16.0269441]]]},"properties":{}},{"type":"Feature","geometry":{"type":"Polygon","coordinates":[[[108.1992632,16.0236333],[108.2002896,16.024367],[108.2006181,16.0237732],[108.1994535,16.0233624],[108.1992632,16.0236333]]]},"properties":{}},{"type":"Feature","geometry":{"type":"Polygon","coordinates":[[[108.1920684,16.0381785],[108.1921678,16.0375759],[108.1928362,16.037978],[108.1926084,16.0383722],[108.1920684,16.0381785]]]},"properties":{}},{"type":"Feature","geometry":{"type":"Polygon","coordinates":[[[108.1929674,16.0385036],[108.1930365,16.0378785],[108.1937436,16.0370384],[108.1939424,16.0381466],[108.1933845,16.0386656],[108.1929674,16.0385036]]]},"properties":{}},{"type":"Feature","geometry":{"type":"Polygon","coordinates":[[[108.1897641,16.0410157],[108.1896416,16.0406128],[108.189783,16.0404121],[108.1897641,16.0410157]]]},"properties":{}},{"type":"Feature","geometry":{"type":"Polygon","coordinates":[[[108.1898018,16.0411107],[108.1906466,16.0412466],[108.1907329,16.0404815],[108.1898505,16.040403],[108.1898018,16.0411107]]]},"properties":{}},{"type":"Feature","geometry":{"type":"Polygon","coordinates":[[[108.1897569,16.0402919],[108.1897949,16.039924],[108.1907986,16.040049],[108.1907655,16.0403993],[108.1897569,16.0402919]]]},"properties":{}},{"type":"Feature","geometry":{"type":"Polygon","coordinates":[[[108.1914014,16.0398145],[108.1920495,16.0400345],[108.1922287,16.03947],[108.1915034,16.0392738],[108.1914014,16.0398145]]]},"properties":{}},{"type":"Feature","geometry":{"type":"Polygon","coordinates":[[[108.1918869,16.0416749],[108.1932246,16.0421159],[108.1936718,16.0411826],[108.1930688,16.0409713],[108.1928331,16.0412827],[108.1921076,16.041193],[108.1918869,16.0416749]]]},"properties":{}},{"type":"Feature","geometry":{"type":"Polygon","coordinates":[[[108.1903845,16.0485489],[108.1899046,16.0481464],[108.1901129,16.0478831],[108.1906109,16.0482465],[108.1903845,16.0485489]]]},"properties":{}},{"type":"Feature","geometry":{"type":"Polygon","coordinates":[[[108.1899978,16.0475006],[108.1895048,16.0476944],[108.1898574,16.0473556],[108.1899978,16.0475006]]]},"properties":{}},{"type":"Feature","geometry":{"type":"Polygon","coordinates":[[[108.1904817,16.0469795],[108.1900635,16.0474374],[108.1899007,16.047314],[108.1902741,16.0469005],[108.1904817,16.0469795]]]},"properties":{}},{"type":"Feature","geometry":{"type":"Polygon","coordinates":[[[108.1910076,16.0472003],[108.1902902,16.0478633],[108.1909268,16.0471359],[108.1910076,16.0472003]]]},"properties":{}},{"type":"Feature","geometry":{"type":"Polygon","coordinates":[[[108.2339391,16.0259755],[108.2336446,16.0257027],[108.2336709,16.0256791],[108.2339391,16.0259755]]]},"properties":{}},{"type":"Feature","geometry":{"type":"Polygon","coordinates":[[[108.1955968,16.0639144],[108.1965977,16.0637416],[108.1965248,16.062537],[108.1958398,16.0628125],[108.1955968,16.0639144]]]},"properties":{}}]}